{"fetched_at":"2026-03-29T02:12:04Z","count":15717,"tles":[{"name":"COSMOS 2518","line1":"1 42719U 17027A   26086.47350367 -.00000878  00000+0  00000+0 0  9999","line2":"2 42719  63.1088 258.3197 7014884 273.5690  15.4907  2.01023924 64762","category":"Other"}]}